[{"CCSDS_OMM_VERS":"2.0","COMMENT":"GENERATED VIA SPACE-TRACK.ORG API","CREATION_DATE":"2019-12-03T05:57:15","ORIGINATOR":"18 SPCS","OBJECT_NAME":"STARLINK-1024","OBJECT_ID":"2019-074S","CENTER_NAME":"EARTH","REF_FRAME":"TEME","TIME_SYSTEM":"UTC","MEAN_ELEMENT_THEORY":"SGP4","EPOCH":"2019-12-02T22:00:00.999936","MEAN_MOTION":"15.73231721","ECCENTRICITY":"0.00081630","INCLINATION":"53.0094","RA_OF_ASC_NODE":"64.6441","ARG_OF_PERICENTER":"299.8963","MEAN_ANOMALY":"303.0569","EPHEMERIS_TYPE":"0","CLASSIFICATION_TYPE":"U","NORAD_CAT_ID":"44729","ELEMENT_SET_NO":"999","REV_AT_EPOCH":"181","BSTAR":"-0.00015282000000","MEAN_MOTION_DOT":"-0.00022103","MEAN_MOTION_DDOT":"0.0000000000000","SEMIMAJOR_AXIS":"6727.804","PERIOD":"91.531","APOAPSIS":"355.161","PERIAPSIS":"344.177","OBJECT_TYPE":"PAYLOAD","RCS_SIZE":"LARGE","COUNTRY_CODE":"US","LAUNCH_DATE":"2019-11-11","SITE":"AFETR","DECAY_DATE":null,"FILE":"2661009","GP_ID":"144044219","TLE_LINE0":"0 STARLINK-1024","TLE_LINE1":"1 44729U 19074S   19336.91667824 -.00022103 +00000-0 -15282-3 0  9993","TLE_LINE2":"2 44729 053.0094 064.6441 0008163 299.8963 303.0569 15.73231721001816"},{"CCSDS_OMM_VERS":"2.0","COMMENT":"GENERATED VIA SPACE-TRACK.ORG API","CREATION_DATE":"2019-12-04T05:57:20","ORIGINATOR":"18 SPCS","OBJECT_NAME":"STARLINK-1024","OBJECT_ID":"2019-074S","CENTER_NAME":"EARTH","REF_FRAME":"TEME","TIME_SYSTEM":"UTC","MEAN_ELEMENT_THEORY":"SGP4","EPOCH":"2019-12-03T22:00:00.999936","MEAN_MOTION":"15.73240789","ECCENTRICITY":"0.00082400","INCLINATION":"53.0096","RA_OF_ASC_NODE":"59.6713","ARG_OF_PERICENTER":"304.3308","MEAN_ANOMALY":"205.5468","EPHEMERIS_TYPE":"0","CLASSIFICATION_TYPE":"U","NORAD_CAT_ID":"44729","ELEMENT_SET_NO":"999","REV_AT_EPOCH":"181","BSTAR":"0.00004113800000","MEAN_MOTION_DOT":"0.00005167","MEAN_MOTION_DDOT":"0.0000000000000","SEMIMAJOR_AXIS":"6727.778","PERIOD":"91.530","APOAPSIS":"355.187","PERIAPSIS":"344.100","OBJECT_TYPE":"PAYLOAD","RCS_SIZE":"LARGE","COUNTRY_CODE":"US","LAUNCH_DATE":"2019-11-11","SITE":"AFETR","DECAY_DATE":null,"FILE":"2661075","GP_ID":"144103111","TLE_LINE0":"0 STARLINK-1024","TLE_LINE1":"1 44729U 19074S   19337.91667824 +.00005167 +00000-0 +41138-4 0  9993","TLE_LINE2":"2 44729 053.0096 059.6713 0008240 304.3308 205.5468 15.73240789001813"},{"CCSDS_OMM_VERS":"2.0","COMMENT":"GENERATED VIA SPACE-TRACK.ORG API","CREATION_DATE":"2019-12-05T04:41:02","ORIGINATOR":"18 SPCS","OBJECT_NAME":"STARLINK-1024","OBJECT_ID":"2019-074S","CENTER_NAME":"EARTH","REF_FRAME":"TEME","TIME_SYSTEM":"UTC","MEAN_ELEMENT_THEORY":"SGP4","EPOCH":"2019-12-04T22:00:01.999584","MEAN_MOTION":"15.73194936","ECCENTRICITY":"0.00082950","INCLINATION":"53.0097","RA_OF_ASC_NODE":"54.6986","ARG_OF_PERICENTER":"307.1640","MEAN_ANOMALY":"109.7277","EPHEMERIS_TYPE":"0","CLASSIFICATION_TYPE":"U","NORAD_CAT_ID":"44729","ELEMENT_SET_NO":"999","REV_AT_EPOCH":"182","BSTAR":"0.00103670000000","MEAN_MOTION_DOT":"0.00147708","MEAN_MOTION_DDOT":"0.0000000000000","SEMIMAJOR_AXIS":"6727.909","PERIOD":"91.533","APOAPSIS":"355.355","PERIAPSIS":"344.193","OBJECT_TYPE":"PAYLOAD","RCS_SIZE":"LARGE","COUNTRY_CODE":"US","LAUNCH_DATE":"2019-11-11","SITE":"AFETR","DECAY_DATE":null,"FILE":"2661153","GP_ID":"144164337","TLE_LINE0":"0 STARLINK-1024","TLE_LINE1":"1 44729U 19074S   19338.91668981 +.00147708 +00000-0 +10367-2 0  9995","TLE_LINE2":"2 44729 053.0097 054.6986 0008295 307.1640 109.7277 15.73194936001827"},{"CCSDS_OMM_VERS":"2.0","COMMENT":"GENERATED VIA SPACE-TRACK.ORG API","CREATION_DATE":"2019-12-05T14:00:19","ORIGINATOR":"18 SPCS","OBJECT_NAME":"STARLINK-1024","OBJECT_ID":"2019-074S","CENTER_NAME":"EARTH","REF_FRAME":"TEME","TIME_SYSTEM":"UTC","MEAN_ELEMENT_THEORY":"SGP4","EPOCH":"2019-12-05T12:00:00.999648","MEAN_MOTION":"15.73224148","ECCENTRICITY":"0.00083260","INCLINATION":"53.0099","RA_OF_ASC_NODE":"51.7990","ARG_OF_PERICENTER":"310.2736","MEAN_ANOMALY":"172.2497","EPHEMERIS_TYPE":"0","CLASSIFICATION_TYPE":"U","NORAD_CAT_ID":"44729","ELEMENT_SET_NO":"999","REV_AT_EPOCH":"377","BSTAR":"0.00005600900000","MEAN_MOTION_DOT":"0.00007260","MEAN_MOTION_DDOT":"0.0000000000000","SEMIMAJOR_AXIS":"6727.826","PERIOD":"91.531","APOAPSIS":"355.292","PERIAPSIS":"344.089","OBJECT_TYPE":"PAYLOAD","RCS_SIZE":"LARGE","COUNTRY_CODE":"US","LAUNCH_DATE":"2019-11-11","SITE":"AFETR","DECAY_DATE":null,"FILE":"2661496","GP_ID":"144172655","TLE_LINE0":"0 STARLINK-1024","TLE_LINE1":"1 44729U 19074S   19339.50001157  .00007260  00000-0  56009-4 0  9990","TLE_LINE2":"2 44729  53.0099  51.7990 0008326 310.2736 172.2497 15.73224148  3772"},{"CCSDS_OMM_VERS":"2.0","COMMENT":"GENERATED VIA SPACE-TRACK.ORG API","CREATION_DATE":"2019-12-06T04:21:34","ORIGINATOR":"18 SPCS","OBJECT_NAME":"STARLINK-1024","OBJECT_ID":"2019-074S","CENTER_NAME":"EARTH","REF_FRAME":"TEME","TIME_SYSTEM":"UTC","MEAN_ELEMENT_THEORY":"SGP4","EPOCH":"2019-12-05T22:00:00.999936","MEAN_MOTION":"15.73222842","ECCENTRICITY":"0.00083240","INCLINATION":"53.0101","RA_OF_ASC_NODE":"49.7261","ARG_OF_PERICENTER":"310.6074","MEAN_ANOMALY":"13.1391","EPHEMERIS_TYPE":"0","CLASSIFICATION_TYPE":"U","NORAD_CAT_ID":"44729","ELEMENT_SET_NO":"999","REV_AT_EPOCH":"181","BSTAR":"-0.00000061633000","MEAN_MOTION_DOT":"-0.00000720","MEAN_MOTION_DDOT":"0.0000000000000","SEMIMAJOR_AXIS":"6727.830","PERIOD":"91.531","APOAPSIS":"355.295","PERIAPSIS":"344.094","OBJECT_TYPE":"PAYLOAD","RCS_SIZE":"LARGE","COUNTRY_CODE":"US","LAUNCH_DATE":"2019-11-11","SITE":"AFETR","DECAY_DATE":null,"FILE":"2661931","GP_ID":"144221475","TLE_LINE0":"0 STARLINK-1024","TLE_LINE1":"1 44729U 19074S   19339.91667824 -.00000720 +00000-0 -61633-6 0  9991","TLE_LINE2":"2 44729 053.0101 049.7261 0008324 310.6074 013.1391 15.73222842001819"},{"CCSDS_OMM_VERS":"2.0","COMMENT":"GENERATED VIA SPACE-TRACK.ORG API","CREATION_DATE":"2019-12-06T14:30:17","ORIGINATOR":"18 SPCS","OBJECT_NAME":"STARLINK-1024","OBJECT_ID":"2019-074S","CENTER_NAME":"EARTH","REF_FRAME":"TEME","TIME_SYSTEM":"UTC","MEAN_ELEMENT_THEORY":"SGP4","EPOCH":"2019-12-06T14:00:01.000224","MEAN_MOTION":"15.73191757","ECCENTRICITY":"0.00083920","INCLINATION":"53.0101","RA_OF_ASC_NODE":"46.4129","ARG_OF_PERICENTER":"312.0010","MEAN_ANOMALY":"189.6894","EPHEMERIS_TYPE":"0","CLASSIFICATION_TYPE":"U","NORAD_CAT_ID":"44729","ELEMENT_SET_NO":"999","REV_AT_EPOCH":"394","BSTAR":"0.00024046000000","MEAN_MOTION_DOT":"0.00033314","MEAN_MOTION_DDOT":"0.0000000000000","SEMIMAJOR_AXIS":"6727.918","PERIOD":"91.533","APOAPSIS":"355.429","PERIAPSIS":"344.137","OBJECT_TYPE":"PAYLOAD","RCS_SIZE":"LARGE","COUNTRY_CODE":"US","LAUNCH_DATE":"2019-11-11","SITE":"AFETR","DECAY_DATE":null,"FILE":"2662104","GP_ID":"144224981","TLE_LINE0":"0 STARLINK-1024","TLE_LINE1":"1 44729U 19074S   19340.58334491  .00033314  00000-0  24046-3 0  9994","TLE_LINE2":"2 44729  53.0101  46.4129 0008392 312.0010 189.6894 15.73191757  3940"},{"CCSDS_OMM_VERS":"2.0","COMMENT":"GENERATED VIA SPACE-TRACK.ORG API","CREATION_DATE":"2019-12-07T05:02:32","ORIGINATOR":"18 SPCS","OBJECT_NAME":"STARLINK-1024","OBJECT_ID":"2019-074S","CENTER_NAME":"EARTH","REF_FRAME":"TEME","TIME_SYSTEM":"UTC","MEAN_ELEMENT_THEORY":"SGP4","EPOCH":"2019-12-06T22:00:01.999584","MEAN_MOTION":"15.73196793","ECCENTRICITY":"0.00083240","INCLINATION":"53.0102","RA_OF_ASC_NODE":"44.7537","ARG_OF_PERICENTER":"312.2647","MEAN_ANOMALY":"278.4566","EPHEMERIS_TYPE":"0","CLASSIFICATION_TYPE":"U","NORAD_CAT_ID":"44729","ELEMENT_SET_NO":"999","REV_AT_EPOCH":"181","BSTAR":"0.00087319000000","MEAN_MOTION_DOT":"0.00123976","MEAN_MOTION_DDOT":"0.0000000000000","SEMIMAJOR_AXIS":"6727.904","PERIOD":"91.533","APOAPSIS":"355.369","PERIAPSIS":"344.169","OBJECT_TYPE":"PAYLOAD","RCS_SIZE":"LARGE","COUNTRY_CODE":"US","LAUNCH_DATE":"2019-11-11","SITE":"AFETR","DECAY_DATE":null,"FILE":"2662369","GP_ID":"144288503","TLE_LINE0":"0 STARLINK-1024","TLE_LINE1":"1 44729U 19074S   19340.91668981 +.00123976 +00000-0 +87319-3 0  9991","TLE_LINE2":"2 44729 053.0102 044.7537 0008324 312.2647 278.4566 15.73196793001810"},{"CCSDS_OMM_VERS":"2.0","COMMENT":"GENERATED VIA SPACE-TRACK.ORG API","CREATION_DATE":"2019-12-07T14:40:16","ORIGINATOR":"18 SPCS","OBJECT_NAME":"STARLINK-1024","OBJECT_ID":"2019-074S","CENTER_NAME":"EARTH","REF_FRAME":"TEME","TIME_SYSTEM":"UTC","MEAN_ELEMENT_THEORY":"SGP4","EPOCH":"2019-12-07T14:00:01.000224","MEAN_MOTION":"15.73207976","ECCENTRICITY":"0.00084740","INCLINATION":"53.0106","RA_OF_ASC_NODE":"41.4406","ARG_OF_PERICENTER":"315.7118","MEAN_ANOMALY":"92.9043","EPHEMERIS_TYPE":"0","CLASSIFICATION_TYPE":"U","NORAD_CAT_ID":"44729","ELEMENT_SET_NO":"999","REV_AT_EPOCH":"410","BSTAR":"0.00031550000000","MEAN_MOTION_DOT":"0.00043996","MEAN_MOTION_DDOT":"0.0000000000000","SEMIMAJOR_AXIS":"6727.872","PERIOD":"91.532","APOAPSIS":"355.438","PERIAPSIS":"344.036","OBJECT_TYPE":"PAYLOAD","RCS_SIZE":"LARGE","COUNTRY_CODE":"US","LAUNCH_DATE":"2019-11-11","SITE":"AFETR","DECAY_DATE":null,"FILE":"2662657","GP_ID":"144294934","TLE_LINE0":"0 STARLINK-1024","TLE_LINE1":"1 44729U 19074S   19341.58334491  .00043996  00000-0  31550-3 0  9990","TLE_LINE2":"2 44729  53.0106  41.4406 0008474 315.7118  92.9043 15.73207976  4100"}]